[{"OBJECT_NAME":"METOP-C","OBJECT_ID":"2018-087A","EPOCH":"2026-03-06T05:33:26.296704","MEAN_MOTION":14.21495715,"ECCENTRICITY":0.00021786,"INCLINATION":98.6772,"RA_OF_ASC_NODE":126.6631,"ARG_OF_PERICENTER":104.6388,"MEAN_ANOMALY":255.5031,"EPHEMERIS_TYPE":0,"CLASSIFICATION_TYPE":"U","NORAD_CAT_ID":43689,"ELEMENT_SET_NO":999,"REV_AT_EPOCH":38020,"BSTAR":9.3091654e-5,"MEAN_MOTION_DOT":1.6e-6,"MEAN_MOTION_DDOT":0},{"OBJECT_NAME":"GEO-KOMPSAT-2A","OBJECT_ID":"2018-100A","EPOCH":"2026-03-04T06:21:38.470176","MEAN_MOTION":1.00267019,"ECCENTRICITY":0.00017508,"INCLINATION":0.0084,"RA_OF_ASC_NODE":82.1864,"ARG_OF_PERICENTER":326.5345,"MEAN_ANOMALY":336.9688,"EPHEMERIS_TYPE":0,"CLASSIFICATION_TYPE":"U","NORAD_CAT_ID":43823,"ELEMENT_SET_NO":999,"REV_AT_EPOCH":2657,"BSTAR":0,"MEAN_MOTION_DOT":0,"MEAN_MOTION_DDOT":0},{"OBJECT_NAME":"METEOR-M2 2","OBJECT_ID":"2019-038A","EPOCH":"2026-03-06T06:18:15.169248","MEAN_MOTION":14.24333367,"ECCENTRICITY":0.00011032,"INCLINATION":98.9082,"RA_OF_ASC_NODE":51.0667,"ARG_OF_PERICENTER":10.8806,"MEAN_ANOMALY":349.2396,"EPHEMERIS_TYPE":0,"CLASSIFICATION_TYPE":"U","NORAD_CAT_ID":44387,"ELEMENT_SET_NO":999,"REV_AT_EPOCH":34664,"BSTAR":0.00018958474,"MEAN_MOTION_DOT":3.92e-6,"MEAN_MOTION_DDOT":0},{"OBJECT_NAME":"ARKTIKA-M 1","OBJECT_ID":"2021-016A","EPOCH":"2026-03-02T19:44:56.440608","MEAN_MOTION":2.00620868,"ECCENTRICITY":0.72428147,"INCLINATION":63.2036,"RA_OF_ASC_NODE":72.8571,"ARG_OF_PERICENTER":269.4536,"MEAN_ANOMALY":15.2019,"EPHEMERIS_TYPE":0,"CLASSIFICATION_TYPE":"U","NORAD_CAT_ID":47719,"ELEMENT_SET_NO":999,"REV_AT_EPOCH":3665,"BSTAR":0,"MEAN_MOTION_DOT":-1.08e-6,"MEAN_MOTION_DDOT":0},{"OBJECT_NAME":"FENGYUN 3E","OBJECT_ID":"2021-062A","EPOCH":"2026-03-06T07:40:14.793024","MEAN_MOTION":14.19894014,"ECCENTRICITY":0.0002416,"INCLINATION":98.7509,"RA_OF_ASC_NODE":69.8706,"ARG_OF_PERICENTER":48.6101,"MEAN_ANOMALY":311.5283,"EPHEMERIS_TYPE":0,"CLASSIFICATION_TYPE":"U","NORAD_CAT_ID":49008,"ELEMENT_SET_NO":999,"REV_AT_EPOCH":24198,"BSTAR":9.4756463e-5,"MEAN_MOTION_DOT":1.57e-6,"MEAN_MOTION_DDOT":0},{"OBJECT_NAME":"GOES 18","OBJECT_ID":"2022-021A","EPOCH":"2026-03-06T04:44:58.135776","MEAN_MOTION":1.00272933,"ECCENTRICITY":7.296e-5,"INCLINATION":0.0342,"RA_OF_ASC_NODE":75.4754,"ARG_OF_PERICENTER":328.9257,"MEAN_ANOMALY":53.7507,"EPHEMERIS_TYPE":0,"CLASSIFICATION_TYPE":"U","NORAD_CAT_ID":51850,"ELEMENT_SET_NO":999,"REV_AT_EPOCH":556,"BSTAR":0,"MEAN_MOTION_DOT":9.1e-7,"MEAN_MOTION_DDOT":0},{"OBJECT_NAME":"NOAA 21 (JPSS-2)","OBJECT_ID":"2022-150A","EPOCH":"2026-03-06T06:26:29.359968","MEAN_MOTION":14.19551134,"ECCENTRICITY":0.00025935,"INCLINATION":98.7552,"RA_OF_ASC_NODE":5.5736,"ARG_OF_PERICENTER":112.6272,"MEAN_ANOMALY":247.5179,"EPHEMERIS_TYPE":0,"CLASSIFICATION_TYPE":"U","NORAD_CAT_ID":54234,"ELEMENT_SET_NO":999,"REV_AT_EPOCH":17194,"BSTAR":8.49054e-5,"MEAN_MOTION_DOT":1.35e-6,"MEAN_MOTION_DDOT":0},{"OBJECT_NAME":"METEOSAT-12 (MTG-I1)","OBJECT_ID":"2022-170C","EPOCH":"2026-03-06T03:41:11.751072","MEAN_MOTION":1.0026987,"ECCENTRICITY":0.00020504,"INCLINATION":0.703,"RA_OF_ASC_NODE":21.6583,"ARG_OF_PERICENTER":287.1766,"MEAN_ANOMALY":270.0306,"EPHEMERIS_TYPE":0,"CLASSIFICATION_TYPE":"U","NORAD_CAT_ID":54743,"ELEMENT_SET_NO":999,"REV_AT_EPOCH":1194,"BSTAR":0,"MEAN_MOTION_DOT":-1.3e-7,"MEAN_MOTION_DDOT":0},{"OBJECT_NAME":"TIANMU-1 03","OBJECT_ID":"2023-039A","EPOCH":"2026-03-06T06:00:32.703264","MEAN_MOTION":15.44040094,"ECCENTRICITY":0.00040222,"INCLINATION":97.5173,"RA_OF_ASC_NODE":235.453,"ARG_OF_PERICENTER":111.069,"MEAN_ANOMALY":249.0989,"EPHEMERIS_TYPE":0,"CLASSIFICATION_TYPE":"U","NORAD_CAT_ID":55973,"ELEMENT_SET_NO":999,"REV_AT_EPOCH":16493,"BSTAR":0.00040934704,"MEAN_MOTION_DOT":0.00018617,"MEAN_MOTION_DDOT":0},{"OBJECT_NAME":"TIANMU-1 04","OBJECT_ID":"2023-039B","EPOCH":"2026-03-06T06:35:38.260896","MEAN_MOTION":15.44450653,"ECCENTRICITY":0.00046704,"INCLINATION":97.5107,"RA_OF_ASC_NODE":234.6394,"ARG_OF_PERICENTER":107.0083,"MEAN_ANOMALY":253.1677,"EPHEMERIS_TYPE":0,"CLASSIFICATION_TYPE":"U","NORAD_CAT_ID":55974,"ELEMENT_SET_NO":999,"REV_AT_EPOCH":16494,"BSTAR":0.00044282901,"MEAN_MOTION_DOT":0.00020436,"MEAN_MOTION_DDOT":0},{"OBJECT_NAME":"TIANMU-1 05","OBJECT_ID":"2023-039C","EPOCH":"2026-03-06T06:59:58.007040","MEAN_MOTION":15.43982815,"ECCENTRICITY":0.00037853,"INCLINATION":97.5152,"RA_OF_ASC_NODE":235.1483,"ARG_OF_PERICENTER":127.835,"MEAN_ANOMALY":232.3241,"EPHEMERIS_TYPE":0,"CLASSIFICATION_TYPE":"U","NORAD_CAT_ID":55975,"ELEMENT_SET_NO":999,"REV_AT_EPOCH":16492,"BSTAR":0.00041694825,"MEAN_MOTION_DOT":0.00018927,"MEAN_MOTION_DDOT":0},{"OBJECT_NAME":"TIANMU-1 06","OBJECT_ID":"2023-039D","EPOCH":"2026-03-06T06:35:26.952864","MEAN_MOTION":15.44480099,"ECCENTRICITY":0.00040915,"INCLINATION":97.5164,"RA_OF_ASC_NODE":235.6679,"ARG_OF_PERICENTER":123.6019,"MEAN_ANOMALY":236.562,"EPHEMERIS_TYPE":0,"CLASSIFICATION_TYPE":"U","NORAD_CAT_ID":55976,"ELEMENT_SET_NO":999,"REV_AT_EPOCH":16494,"BSTAR":0.00044130621,"MEAN_MOTION_DOT":0.00020383,"MEAN_MOTION_DDOT":0},{"OBJECT_NAME":"FENGYUN 3G","OBJECT_ID":"2023-055A","EPOCH":"2026-03-06T06:58:56.854848","MEAN_MOTION":15.5436353,"ECCENTRICITY":0.00107527,"INCLINATION":49.9929,"RA_OF_ASC_NODE":156.5457,"ARG_OF_PERICENTER":357.7876,"MEAN_ANOMALY":2.3043,"EPHEMERIS_TYPE":0,"CLASSIFICATION_TYPE":"U","NORAD_CAT_ID":56232,"ELEMENT_SET_NO":999,"REV_AT_EPOCH":16401,"BSTAR":0.00047690568,"MEAN_MOTION_DOT":0.00031609,"MEAN_MOTION_DDOT":0},{"OBJECT_NAME":"METEOR-M2 3","OBJECT_ID":"2023-091A","EPOCH":"2026-03-06T07:18:25.022592","MEAN_MOTION":14.24037239,"ECCENTRICITY":0.00050844,"INCLINATION":98.6221,"RA_OF_ASC_NODE":122.3277,"ARG_OF_PERICENTER":106.9889,"MEAN_ANOMALY":253.1847,"EPHEMERIS_TYPE":0,"CLASSIFICATION_TYPE":"U","NORAD_CAT_ID":57166,"ELEMENT_SET_NO":999,"REV_AT_EPOCH":13987,"BSTAR":2.710721e-5,"MEAN_MOTION_DOT":1.9e-7,"MEAN_MOTION_DDOT":0},{"OBJECT_NAME":"TIANMU-1 07","OBJECT_ID":"2023-101A","EPOCH":"2026-03-06T05:56:10.531968","MEAN_MOTION":15.29112267,"ECCENTRICITY":0.0004588,"INCLINATION":97.2728,"RA_OF_ASC_NODE":118.2729,"ARG_OF_PERICENTER":143.305,"MEAN_ANOMALY":216.8506,"EPHEMERIS_TYPE":0,"CLASSIFICATION_TYPE":"U","NORAD_CAT_ID":57399,"ELEMENT_SET_NO":999,"REV_AT_EPOCH":14591,"BSTAR":0.00026535126,"MEAN_MOTION_DOT":7.428e-5,"MEAN_MOTION_DDOT":0},{"OBJECT_NAME":"TIANMU-1 08","OBJECT_ID":"2023-101B","EPOCH":"2026-03-06T09:55:22.565568","MEAN_MOTION":15.29192867,"ECCENTRICITY":0.0006342,"INCLINATION":97.2722,"RA_OF_ASC_NODE":118.2135,"ARG_OF_PERICENTER":135.5438,"MEAN_ANOMALY":224.6312,"EPHEMERIS_TYPE":0,"CLASSIFICATION_TYPE":"U","NORAD_CAT_ID":57400,"ELEMENT_SET_NO":999,"REV_AT_EPOCH":14593,"BSTAR":1.6876e-5,"MEAN_MOTION_DOT":4.06e-6,"MEAN_MOTION_DDOT":0},{"OBJECT_NAME":"TIANMU-1 09","OBJECT_ID":"2023-101C","EPOCH":"2026-03-06T06:20:17.214432","MEAN_MOTION":15.2900763,"ECCENTRICITY":0.00046433,"INCLINATION":97.2674,"RA_OF_ASC_NODE":117.5459,"ARG_OF_PERICENTER":149.1911,"MEAN_ANOMALY":210.9603,"EPHEMERIS_TYPE":0,"CLASSIFICATION_TYPE":"U","NORAD_CAT_ID":57401,"ELEMENT_SET_NO":999,"REV_AT_EPOCH":14591,"BSTAR":0.00024774903,"MEAN_MOTION_DOT":6.907e-5,"MEAN_MOTION_DDOT":0}]
