METOP-C                 
1 43689U 18087A   26065.23155436  .00000160  00000+0  93092-4 0  9995
2 43689  98.6772 126.6631 0002178 104.6388 255.5031 14.21495715380207
GEO-KOMPSAT-2A          
1 43823U 18100A   26063.26502859  .00000000  00000+0  00000+0 0  9992
2 43823   0.0084  82.1864 0001750 326.5345 336.9688  1.00267019 26573
METEOR-M2 2             
1 44387U 19038A   26065.26267557  .00000392  00000+0  18958-3 0  9993
2 44387  98.9082  51.0667 0001103  10.8806 349.2396 14.24333367346642
ARKTIKA-M 1             
1 47719U 21016A   26061.82287547 -.00000108  00000+0  00000+0 0  9994
2 47719  63.2036  72.8571 7242814 269.4536  15.2019  2.00620868 36653
FENGYUN 3E              
1 49008U 21062A   26065.31961566  .00000157  00000+0  94756-4 0  9995
2 49008  98.7509  69.8706 0002416  48.6101 311.5283 14.19894014241988
GOES 18                 
1 51850U 22021A   26065.19789509  .00000091  00000+0  00000+0 0  9991
2 51850   0.0342  75.4754 0000729 328.9257  53.7507  1.00272933  5566
NOAA 21 (JPSS-2)        
1 54234U 22150A   26065.26839537  .00000135  00000+0  84905-4 0  9998
2 54234  98.7552   5.5736 0002593 112.6272 247.5179 14.19551134171943
METEOSAT-12 (MTG-I1)    
1 54743U 22170C   26065.15360823 -.00000013  00000+0  00000+0 0  9995
2 54743   0.7030  21.6583 0002050 287.1766 270.0306  1.00269870 11940
TIANMU-1 03             
1 55973U 23039A   26065.25037851  .00018617  00000+0  40935-3 0  9992
2 55973  97.5173 235.4530 0004022 111.0690 249.0989 15.44040094164936
TIANMU-1 04             
1 55974U 23039B   26065.27474839  .00020436  00000+0  44283-3 0  9998
2 55974  97.5107 234.6394 0004670 107.0083 253.1677 15.44450653164940
TIANMU-1 05             
1 55975U 23039C   26065.29164360  .00018927  00000+0  41695-3 0  9992
2 55975  97.5152 235.1483 0003785 127.8350 232.3241 15.43982815164922
TIANMU-1 06             
1 55976U 23039D   26065.27461751  .00020383  00000+0  44131-3 0  9992
2 55976  97.5164 235.6679 0004091 123.6019 236.5620 15.44480099164942
FENGYUN 3G              
1 56232U 23055A   26065.29093582  .00031609  00000+0  47691-3 0  9998
2 56232  49.9929 156.5457 0010752 357.7876   2.3043 15.54363530164012
METEOR-M2 3             
1 57166U 23091A   26065.30445628  .00000019  00000+0  27107-4 0  9991
2 57166  98.6221 122.3277 0005084 106.9889 253.1847 14.24037239139870
TIANMU-1 07             
1 57399U 23101A   26065.24734412  .00007428  00000+0  26535-3 0  9990
2 57399  97.2728 118.2729 0004588 143.3050 216.8506 15.29112267145915
TIANMU-1 08             
1 57400U 23101B   26065.41345562  .00000406  00000+0  16876-4 0  9993
2 57400  97.2722 118.2135 0006342 135.5438 224.6312 15.29192867145934
TIANMU-1 09             
1 57401U 23101C   26065.26408813  .00006907  00000+0  24775-3 0  9994
2 57401  97.2674 117.5459 0004643 149.1911 210.9603 15.29007630145913
